STARLINK-37508          
1 69257U 26117V   26158.75005786 -.02242326  13617-2 -63562-2 0  9993
2 69257  53.1563 290.6281 0001057  37.8253  30.0996 15.92890139  2649
STARLINK-37276          
1 69258U 26117W   26158.75005786 -.01949587  11066-2 -41531-2 0  9994
2 69258  53.1560 290.5249 0001012  49.2292  68.0112 15.98139723  2643
STARLINK-37518          
1 69259U 26117X   26158.75005786 -.01538210  71143-3 -33084-2 0  9999
2 69259  53.1557 290.5138 0001021  43.6157  79.3359 15.97909515  2657
STARLINK-37478          
1 69260U 26117Y   26158.75005786 -.01627551  78148-3 -36896-2 0  9994
2 69260  53.1559 290.5155 0001055  31.9475  90.2585 15.96973383  2656
STARLINK-37506          
1 69261U 26117Z   26158.75005786 -.01657911  80845-3 -37617-2 0  9997
2 69261  53.1556 290.5059 0001178  36.3080  90.3971 15.96961816  2652
STARLINK-37503          
1 69262U 26117AA  26158.75005786 -.02093819  12496-2 -47636-2 0  9998
2 69262  53.1559 290.4939 0001094  41.0101  91.1122 15.96969081  2655
STARLINK-37502          
1 69263U 26117AB  26158.75005786 -.01669493  81647-3 -38475-2 0  9991
2 69263  53.1557 290.4896 0001237  35.6684  98.4057 15.96679628  2652
STARLINK-37486          
1 69264U 26117AC  26158.75005786 -.01652823  80212-3 -37935-2 0  9998
2 69264  53.1555 290.4775 0001100  35.3695 104.6378 15.96752310  2651
STARLINK-37435          
1 69265U 26117AD  26158.75005786 -.01727403  87538-3 -38466-2 0  9994
2 69265  53.1556 290.4554 0001073  46.8433 103.3190 15.97312380  2652
STARLINK-37464          
1 69266U 26117AE  26158.75005786 -.02077403  12445-2 -44803-2 0  9990
2 69266  53.1556 290.4337 0001090  46.1702 114.3050 15.97932442  2657
KUIPER-00282            
1 69267U 26118A   26158.75005786  .00061270  00000+0  17647-2 0  9990
2 69267  51.8575  99.0287 0011828 148.2447  46.4462 15.35100386  1906
KUIPER-00383            
1 69268U 26118B   26158.75005786 -.00308925  00000+0 -91222-2 0  9995
2 69268  51.8582  99.0009 0010540 146.4943  62.1810 15.35595098  1964
KUIPER-00527            
1 69269U 26118C   26158.75005786  .00057930  00000+0  16332-2 0  9990
2 69269  51.8607  98.9783 0009684 142.4095  77.3126 15.35817424  1307
KUIPER-00562            
1 69270U 26118D   26158.75005786  .00069515  00000+0  18009-2 0  9997
2 69270  51.8719  98.8230 0001954  89.8574 200.3319 15.38396524  2496
KUIPER-00570            
1 69271U 26118E   26158.75005786  .00058880  00000+0  16805-2 0  9993
2 69271  51.8567  99.0001 0011604 150.4804  58.0821 15.35406821  2081
KUIPER-00572            
1 69272U 26118F   26158.75005786  .00060714  00000+0  16606-2 0  9992
2 69272  51.8666  98.9385 0007510 137.5709 101.2859 15.36758533  1831
KUIPER-00581            
1 69273U 26118G   26158.75005786  .00059425  00000+0  16419-2 0  9992
2 69273  51.8646  98.9597 0009137 142.3668  86.4303 15.36439914  2625
KUIPER-00584            
1 69274U 26118H   26158.75005786  .00056801  00000+0  16303-2 0  9990
2 69274  51.8594  99.0197 0011304 154.6445  44.5867 15.35248725  1305
KUIPER-00587            
1 69275U 26118J   26158.75005786  .00060358  00000+0  16687-2 0  9998
2 69275  51.8620  98.9537 0008557 143.8147  88.0452 15.36418800  1304
KUIPER-00590            
1 69276U 26118K   26158.75005786  .00065143  00000+0  17305-2 0  9994
2 69276  51.8683  98.8809 0004503 126.6637 140.0005 15.37647071  2382
KUIPER-00592            
1 69277U 26118L   26158.75005786  .00066473  00000+0  17524-2 0  9995
2 69277  51.8705  98.8646 0003806 105.0383 168.1956 15.37876311  1309
KUIPER-00593            
1 69278U 26118M   26158.75005786  .00067423  00000+0  17833-2 0  9995
2 69278  51.8710  98.8653 0004095 121.0352 151.1824 15.37767435  2593
KUIPER-00594            
1 69279U 26118N   26158.75005786  .00069790  00000+0  17997-2 0  9996
2 69279  51.8717  98.8143 0001462  70.2707 226.0430 15.38536708  1300
KUIPER-00595            
1 69280U 26118P   26158.75005786  .00070476  00000+0  18336-2 0  9999
2 69280  51.8709  98.8340 0001999 103.9259 183.9129 15.38259699  2569
KUIPER-00596            
1 69281U 26118Q   26158.75005786  .00064034  00000+0  18128-2 0  9992
2 69281  51.8541  99.0095 0012074 150.6168  52.7532 15.35617179  1836
KUIPER-00597            
1 69282U 26118R   26158.75005786  .00061279  00000+0  16728-2 0  9995
2 69282  51.8644  98.9233 0007275 133.0990 113.6351 15.36816175  1304
KUIPER-00599            
1 69283U 26118S   26158.75005786  .00064492  00000+0  17417-2 0  9992
2 69283  51.8686  98.9114 0006501 131.4378 120.0161 15.37131934  1633
KUIPER-00600            
1 69284U 26118T   26158.75005786  .00059912  00000+0  16504-2 0  9990
2 69284  51.8634  98.9500 0009183 138.6331  94.9967 15.36528354  2418
KUIPER-00601            
1 69285U 26118U   26158.75005786  .00064301  00000+0  17188-2 0  9998
2 69285  51.8700  98.8912 0005020 125.0943 135.5148 15.37457652  2443
KUIPER-00602            
1 69286U 26118V   26158.75005786  .00067112  00000+0  17681-2 0  9990
2 69286  51.8698  98.8595 0003179 112.8200 163.5902 15.37893254  1305
