OBJECT_NAME,OBJECT_ID,EPOCH,MEAN_MOTION,ECCENTRICITY,INCLINATION,RA_OF_ASC_NODE,ARG_OF_PERICENTER,MEAN_ANOMALY,EPHEMERIS_TYPE,CLASSIFICATION_TYPE,NORAD_CAT_ID,ELEMENT_SET_NO,REV_AT_EPOCH,BSTAR,MEAN_MOTION_DOT,MEAN_MOTION_DDOT
STARLINK-37508,2026-117V,2026-06-07T18:00:04.999104,15.92890139,.0001057,53.1563,290.6281,37.8253,30.0996,0,U,69257,999,264,-.63562E-2,-.2242326E-1,.13617E-2
STARLINK-37276,2026-117W,2026-06-07T18:00:04.999104,15.98139723,.0001012,53.1560,290.5249,49.2292,68.0112,0,U,69258,999,264,-.41531E-2,-.1949587E-1,.11066E-2
STARLINK-37518,2026-117X,2026-06-07T18:00:04.999104,15.97909515,.0001021,53.1557,290.5138,43.6157,79.3359,0,U,69259,999,265,-.33084E-2,-.153821E-1,.71143E-3
STARLINK-37478,2026-117Y,2026-06-07T18:00:04.999104,15.96973383,.0001055,53.1559,290.5155,31.9475,90.2585,0,U,69260,999,265,-.36896E-2,-.1627551E-1,.78148E-3
STARLINK-37506,2026-117Z,2026-06-07T18:00:04.999104,15.96961816,.0001178,53.1556,290.5059,36.3080,90.3971,0,U,69261,999,265,-.37617E-2,-.1657911E-1,.80845E-3
STARLINK-37503,2026-117AA,2026-06-07T18:00:04.999104,15.96969081,.0001094,53.1559,290.4939,41.0101,91.1122,0,U,69262,999,265,-.47636E-2,-.2093819E-1,.12496E-2
STARLINK-37502,2026-117AB,2026-06-07T18:00:04.999104,15.96679628,.0001237,53.1557,290.4896,35.6684,98.4057,0,U,69263,999,265,-.38475E-2,-.1669493E-1,.81647E-3
STARLINK-37486,2026-117AC,2026-06-07T18:00:04.999104,15.96752310,.00011,53.1555,290.4775,35.3695,104.6378,0,U,69264,999,265,-.37935E-2,-.1652823E-1,.80212E-3
STARLINK-37435,2026-117AD,2026-06-07T18:00:04.999104,15.97312380,.0001073,53.1556,290.4554,46.8433,103.3190,0,U,69265,999,265,-.38466E-2,-.1727403E-1,.87538E-3
STARLINK-37464,2026-117AE,2026-06-07T18:00:04.999104,15.97932442,.000109,53.1556,290.4337,46.1702,114.3050,0,U,69266,999,265,-.44803E-2,-.2077403E-1,.12445E-2
KUIPER-00282,2026-118A,2026-06-07T18:00:04.999104,15.35100386,.0011828,51.8575,99.0287,148.2447,46.4462,0,U,69267,999,190,.17647E-2,.6127E-3,0
KUIPER-00383,2026-118B,2026-06-07T18:00:04.999104,15.35595098,.001054,51.8582,99.0009,146.4943,62.1810,0,U,69268,999,196,-.91222E-2,-.308925E-2,0
KUIPER-00527,2026-118C,2026-06-07T18:00:04.999104,15.35817424,.0009684,51.8607,98.9783,142.4095,77.3126,0,U,69269,999,130,.16332E-2,.5793E-3,0
KUIPER-00562,2026-118D,2026-06-07T18:00:04.999104,15.38396524,.0001954,51.8719,98.8230,89.8574,200.3319,0,U,69270,999,249,.18009E-2,.69515E-3,0
KUIPER-00570,2026-118E,2026-06-07T18:00:04.999104,15.35406821,.0011604,51.8567,99.0001,150.4804,58.0821,0,U,69271,999,208,.16805E-2,.5888E-3,0
KUIPER-00572,2026-118F,2026-06-07T18:00:04.999104,15.36758533,.000751,51.8666,98.9385,137.5709,101.2859,0,U,69272,999,183,.16606E-2,.60714E-3,0
KUIPER-00581,2026-118G,2026-06-07T18:00:04.999104,15.36439914,.0009137,51.8646,98.9597,142.3668,86.4303,0,U,69273,999,262,.16419E-2,.59425E-3,0
KUIPER-00584,2026-118H,2026-06-07T18:00:04.999104,15.35248725,.0011304,51.8594,99.0197,154.6445,44.5867,0,U,69274,999,130,.16303E-2,.56801E-3,0
KUIPER-00587,2026-118J,2026-06-07T18:00:04.999104,15.36418800,.0008557,51.8620,98.9537,143.8147,88.0452,0,U,69275,999,130,.16687E-2,.60358E-3,0
KUIPER-00590,2026-118K,2026-06-07T18:00:04.999104,15.37647071,.0004503,51.8683,98.8809,126.6637,140.0005,0,U,69276,999,238,.17305E-2,.65143E-3,0
KUIPER-00592,2026-118L,2026-06-07T18:00:04.999104,15.37876311,.0003806,51.8705,98.8646,105.0383,168.1956,0,U,69277,999,130,.17524E-2,.66473E-3,0
KUIPER-00593,2026-118M,2026-06-07T18:00:04.999104,15.37767435,.0004095,51.8710,98.8653,121.0352,151.1824,0,U,69278,999,259,.17833E-2,.67423E-3,0
KUIPER-00594,2026-118N,2026-06-07T18:00:04.999104,15.38536708,.0001462,51.8717,98.8143,70.2707,226.0430,0,U,69279,999,130,.17997E-2,.6979E-3,0
KUIPER-00595,2026-118P,2026-06-07T18:00:04.999104,15.38259699,.0001999,51.8709,98.8340,103.9259,183.9129,0,U,69280,999,256,.18336E-2,.70476E-3,0
KUIPER-00596,2026-118Q,2026-06-07T18:00:04.999104,15.35617179,.0012074,51.8541,99.0095,150.6168,52.7532,0,U,69281,999,183,.18128E-2,.64034E-3,0
KUIPER-00597,2026-118R,2026-06-07T18:00:04.999104,15.36816175,.0007275,51.8644,98.9233,133.0990,113.6351,0,U,69282,999,130,.16728E-2,.61279E-3,0
KUIPER-00599,2026-118S,2026-06-07T18:00:04.999104,15.37131934,.0006501,51.8686,98.9114,131.4378,120.0161,0,U,69283,999,163,.17417E-2,.64492E-3,0
KUIPER-00600,2026-118T,2026-06-07T18:00:04.999104,15.36528354,.0009183,51.8634,98.9500,138.6331,94.9967,0,U,69284,999,241,.16504E-2,.59912E-3,0
KUIPER-00601,2026-118U,2026-06-07T18:00:04.999104,15.37457652,.000502,51.8700,98.8912,125.0943,135.5148,0,U,69285,999,244,.17188E-2,.64301E-3,0
KUIPER-00602,2026-118V,2026-06-07T18:00:04.999104,15.37893254,.0003179,51.8698,98.8595,112.8200,163.5902,0,U,69286,999,130,.17681E-2,.67112E-3,0
